[{"OBJECT_NAME":"STARLINK-33748","OBJECT_ID":"2025-063W","EPOCH":"2026-03-09T06:16:29.209152","MEAN_MOTION":15.30190184,"ECCENTRICITY":0.00012352,"INCLINATION":53.1601,"RA_OF_ASC_NODE":65.1125,"ARG_OF_PERICENTER":89.3044,"MEAN_ANOMALY":270.8098,"EPHEMERIS_TYPE":0,"CLASSIFICATION_TYPE":"U","NORAD_CAT_ID":63383,"ELEMENT_SET_NO":999,"REV_AT_EPOCH":5454,"BSTAR":0.00087904608,"MEAN_MOTION_DOT":0.00025758,"MEAN_MOTION_DDOT":0},{"OBJECT_NAME":"CZ-4B R\/B","OBJECT_ID":"2010-051C","EPOCH":"2026-03-09T16:48:37.977120","MEAN_MOTION":15.17426017,"ECCENTRICITY":0.00758037,"INCLINATION":97.7974,"RA_OF_ASC_NODE":110.8647,"ARG_OF_PERICENTER":95.044,"MEAN_ANOMALY":265.9451,"EPHEMERIS_TYPE":0,"CLASSIFICATION_TYPE":"U","NORAD_CAT_ID":37181,"ELEMENT_SET_NO":999,"REV_AT_EPOCH":84355,"BSTAR":0.00029718512,"MEAN_MOTION_DOT":6.328e-5,"MEAN_MOTION_DDOT":0}]
